{"type": "FeatureCollection", "features": [ {"type": "Feature", "properties": {"norad_id": 30814, "name": "FENGYUN 1C DEB", "group": "fengyun-1c-debris", "lat": -29.368072927430397, "lon": -30.645324886929743, "alt_km": 701.3541280585823, "timestamp": "2025-12-13T16:48:32.989181+00:00", "meta": {"OBJECT_NAME": "FENGYUN 1C DEB", "OBJECT_ID": "1999-025AUY", "EPOCH": "2025-12-12T21:21:00.332352", "MEAN_MOTION": 14.60443066, "ECCENTRICITY": 0.00303043, "INCLINATION": 99.0821, "RA_OF_ASC_NODE": 323.3022, "ARG_OF_PERICENTER": 232.2987, "MEAN_ANOMALY": 157.278, "EPHEMERIS_TYPE": 0, "CLASSIFICATION_TYPE": "U", "NORAD_CAT_ID": 30814, "ELEMENT_SET_NO": 999, "REV_AT_EPOCH": 97744, "BSTAR": 0.0041713954, "MEAN_MOTION_DOT": 0.00020344, "MEAN_MOTION_DDOT": 0}, "tle": {"line1": "1 30814U 99025AUY 25346.88958718  .00020344  00000+0  41714-2 0  9996", "line2": "2 30814  99.0821 323.3022 0030304 232.2987 157.2780 14.60443066977440"}}, "geometry": {"type": "Point", "coordinates": [-30.645324886929743, -29.368072927430397]}}, {"type": "Feature", "properties": {"norad_id": 30815, "name": "FENGYUN 1C DEB", "group": "fengyun-1c-debris", "lat": 38.19821909935609, "lon": 136.33747338598778, "alt_km": 647.6968947985606, "timestamp": "2025-12-13T16:48:32.989191+00:00", "meta": {"OBJECT_NAME": "FENGYUN 1C DEB", "OBJECT_ID": "1999-025AUZ", "EPOCH": "2025-12-11T21:20:43.639008", "MEAN_MOTION": 14.7349611, "ECCENTRICITY": 0.0002498, "INCLINATION": 99.3017, "RA_OF_ASC_NODE": 141.6736, "ARG_OF_PERICENTER": 278.1039, "MEAN_ANOMALY": 239.3721, "EPHEMERIS_TYPE": 0, "CLASSIFICATION_TYPE": "U", "NORAD_CAT_ID": 30815, "ELEMENT_SET_NO": 999, "REV_AT_EPOCH": 97767, "BSTAR": 0.0056589, "MEAN_MOTION_DOT": 0.00036902, "MEAN_MOTION_DDOT": 0}, "tle": {"line1": "1 30815U 99025AUZ 25345.88939397  .00036902  00000+0  56589-2 0  9991", "line2": "2 30815  99.3017 141.6736 0002498 278.1039 239.3721 14.73496110977678"}}, "geometry": {"type": "Point", "coordinates": [136.33747338598778, 38.19821909935609]}}, {"type": "Feature", "properties": {"norad_id": 30816, "name": "FENGYUN 1C DEB", "group": "fengyun-1c-debris", "lat": -5.1350256284401725, "lon": -122.62530473694369, "alt_km": 860.9957128691603, "timestamp": "2025-12-13T16:48:32.989201+00:00", "meta": {"OBJECT_NAME": "FENGYUN 1C DEB", "OBJECT_ID": "1999-025AVA", "EPOCH": "2025-12-12T18:30:51.665184", "MEAN_MOTION": 14.18008703, "ECCENTRICITY": 0.00523658, "INCLINATION": 98.915, "RA_OF_ASC_NODE": 57.2504, "ARG_OF_PERICENTER": 55.2778, "MEAN_ANOMALY": 69.8589, "EPHEMERIS_TYPE": 0, "CLASSIFICATION_TYPE": "U", "NORAD_CAT_ID": 30816, "ELEMENT_SET_NO": 999, "REV_AT_EPOCH": 96394, "BSTAR": 0.0023092859, "MEAN_MOTION_DOT": 4.752e-05, "MEAN_MOTION_DDOT": 0}, "tle": {"line1": "1 30816U 99025AVA 25346.77143131  .00004752  00000+0  23093-2 0  9996", "line2": "2 30816  98.9150  57.2504 0052365  55.2778  69.8589 14.18008703963948"}}, "geometry": {"type": "Point", "coordinates": [-122.62530473694369, -5.1350256284401725]}}, {"type": "Feature", "properties": {"norad_id": 30817, "name": "FENGYUN 1C DEB", "group": "fengyun-1c-debris", "lat": -28.1941474281268, "lon": 153.11999634205222, "alt_km": 862.2404622132508, "timestamp": "2025-12-13T16:48:32.989211+00:00", "meta": {"OBJECT_NAME": "FENGYUN 1C DEB", "OBJECT_ID": "1999-025AVB", "EPOCH": "2025-12-12T22:40:08.426208", "MEAN_MOTION": 14.00720918, "ECCENTRICITY": 0.00573773, "INCLINATION": 98.7858, "RA_OF_ASC_NODE": 337.1487, "ARG_OF_PERICENTER": 244.2003, "MEAN_ANOMALY": 115.3236, "EPHEMERIS_TYPE": 0, "CLASSIFICATION_TYPE": "U", "NORAD_CAT_ID": 30817, "ELEMENT_SET_NO": 999, "REV_AT_EPOCH": 95912, "BSTAR": 0.00036239372, "MEAN_MOTION_DOT": 5.05e-06, "MEAN_MOTION_DDOT": 0}, "tle": {"line1": "1 30817U 99025AVB 25346.94454197  .00000505  00000+0  36239-3 0  9992", "line2": "2 30817  98.7858 337.1487 0057377 244.2003 115.3236 14.00720918959122"}}, "geometry": {"type": "Point", "coordinates": [153.11999634205222, -28.1941474281268]}}, {"type": "Feature", "properties": {"norad_id": 30820, "name": "FENGYUN 1C DEB", "group": "fengyun-1c-debris", "lat": 35.08643430372812, "lon": -89.86008504474208, "alt_km": 789.3912625970106, "timestamp": "2025-12-13T16:48:32.989221+00:00", "meta": {"OBJECT_NAME": "FENGYUN 1C DEB", "OBJECT_ID": "1999-025AVE", "EPOCH": "2025-12-12T06:41:19.201344", "MEAN_MOTION": 14.21396113, "ECCENTRICITY": 0.00520883, "INCLINATION": 98.6751, "RA_OF_ASC_NODE": 82.5865, "ARG_OF_PERICENTER": 188.5067, "MEAN_ANOMALY": 245.4791, "EPHEMERIS_TYPE": 0, "CLASSIFICATION_TYPE": "U", "NORAD_CAT_ID": 30820, "ELEMENT_SET_NO": 999, "REV_AT_EPOCH": 96417, "BSTAR": 0.0031181908, "MEAN_MOTION_DOT": 6.867e-05, "MEAN_MOTION_DDOT": 0}, "tle": {"line1": "1 30820U 99025AVE 25346.27869446  .00006867  00000+0  31182-2 0  9997", "line2": "2 30820  98.6751  82.5865 0052088 188.5067 245.4791 14.21396113964173"}}, "geometry": {"type": "Point", "coordinates": [-89.86008504474208, 35.08643430372812]}}, {"type": "Feature", "properties": {"norad_id": 30821, "name": "FENGYUN 1C DEB", "group": "fengyun-1c-debris", "lat": -64.65309626068178, "lon": 150.13588523979553, "alt_km": 734.1319730250871, "timestamp": "2025-12-13T16:48:32.989231+00:00", "meta": {"OBJECT_NAME": "FENGYUN 1C DEB", "OBJECT_ID": "1999-025AVF", "EPOCH": "2025-12-11T09:05:13.802208", "MEAN_MOTION": 14.4964684, "ECCENTRICITY": 0.00863832, "INCLINATION": 99.103, "RA_OF_ASC_NODE": 127.847, "ARG_OF_PERICENTER": 210.0047, "MEAN_ANOMALY": 213.0337, "EPHEMERIS_TYPE": 0, "CLASSIFICATION_TYPE": "U", "NORAD_CAT_ID": 30821, "ELEMENT_SET_NO": 999, "REV_AT_EPOCH": 98769, "BSTAR": 0.0017050443, "MEAN_MOTION_DOT": 6.825e-05, "MEAN_MOTION_DDOT": 0}, "tle": {"line1": "1 30821U 99025AVF 25345.37863197  .00006825  00000+0  17050-2 0  9997", "line2": "2 30821  99.1030 127.8470 0086383 210.0047 213.0337 14.49646840987693"}}, "geometry": {"type": "Point", "coordinates": [150.13588523979553, -64.65309626068178]}}, {"type": "Feature", "properties": {"norad_id": 30822, "name": "FENGYUN 1C DEB", "group": "fengyun-1c-debris", "lat": 73.18730183447622, "lon": -14.848424568511456, "alt_km": 894.7706440279417, "timestamp": "2025-12-13T16:48:32.989241+00:00", "meta": {"OBJECT_NAME": "FENGYUN 1C DEB", "OBJECT_ID": "1999-025AVG", "EPOCH": "2025-12-12T01:27:15.977376", "MEAN_MOTION": 14.11340362, "ECCENTRICITY": 0.00731108, "INCLINATION": 98.7354, "RA_OF_ASC_NODE": 14.1426, "ARG_OF_PERICENTER": 287.2744, "MEAN_ANOMALY": 101.1589, "EPHEMERIS_TYPE": 0, "CLASSIFICATION_TYPE": "U", "NORAD_CAT_ID": 30822, "ELEMENT_SET_NO": 999, "REV_AT_EPOCH": 96692, "BSTAR": 0.00048556191, "MEAN_MOTION_DOT": 8.57e-06, "MEAN_MOTION_DDOT": 0}, "tle": {"line1": "1 30822U 99025AVG 25346.06060159  .00000857  00000+0  48556-3 0  9997", "line2": "2 30822  98.7354  14.1426 0073110 287.2744 101.1589 14.11340362966929"}}, "geometry": {"type": "Point", "coordinates": [-14.848424568511456, 73.18730183447622]}}, {"type": "Feature", "properties": {"norad_id": 30823, "name": "FENGYUN 1C DEB", "group": "fengyun-1c-debris", "lat": 37.539460255705514, "lon": -44.518548105440054, "alt_km": 832.3880669042755, "timestamp": "2025-12-13T16:48:32.989251+00:00", "meta": {"OBJECT_NAME": "FENGYUN 1C DEB", "OBJECT_ID": "1999-025AVH", "EPOCH": "2025-12-12T04:47:25.078848", "MEAN_MOTION": 14.0255544, "ECCENTRICITY": 0.01341188, "INCLINATION": 98.7628, "RA_OF_ASC_NODE": 127.2306, "ARG_OF_PERICENTER": 86.0996, "MEAN_ANOMALY": 40.847, "EPHEMERIS_TYPE": 0, "CLASSIFICATION_TYPE": "U", "NORAD_CAT_ID": 30823, "ELEMENT_SET_NO": 999, "REV_AT_EPOCH": 96026, "BSTAR": 0.00062451814, "MEAN_MOTION_DOT": 1e-05, "MEAN_MOTION_DDOT": 0}, "tle": {"line1": "1 30823U 99025AVH 25346.19959582  .00001000  00000+0  62452-3 0  9991", "line2": "2 30823  98.7628 127.2306 0134118  86.0996  40.8470 14.02555440960261"}}, "geometry": {"type": "Point", "coordinates": [-44.518548105440054, 37.539460255705514]}}, {"type": "Feature", "properties": {"norad_id": 30826, "name": "FENGYUN 1C DEB", "group": "fengyun-1c-debris", "lat": 0.8934128571156943, "lon": 2.9538703367415886, "alt_km": 726.4392843592586, "timestamp": "2025-12-13T16:48:32.989261+00:00", "meta": {"OBJECT_NAME": "FENGYUN 1C DEB", "OBJECT_ID": "1999-025AVL", "EPOCH": "2025-12-13T00:29:16.830816", "MEAN_MOTION": 14.8223755, "ECCENTRICITY": 0.01453289, "INCLINATION": 98.8674, "RA_OF_ASC_NODE": 182.0612, "ARG_OF_PERICENTER": 355.9628, "MEAN_ANOMALY": 156.535, "EPHEMERIS_TYPE": 0, "CLASSIFICATION_TYPE": "U", "NORAD_CAT_ID": 30826, "ELEMENT_SET_NO": 999, "REV_AT_EPOCH": 290, "BSTAR": 0.00070558823, "MEAN_MOTION_DOT": 6.699e-05, "MEAN_MOTION_DDOT": 0}, "tle": {"line1": "1 30826U 99025AVL 25347.02033369  .00006699  00000+0  70559-3 0  9999", "line2": "2 30826  98.8674 182.0612 0145328 355.9628 156.5350 14.82237550  2907"}}, "geometry": {"type": "Point", "coordinates": [2.9538703367415886, 0.8934128571156943]}}, {"type": "Feature", "properties": {"norad_id": 30827, "name": "FENGYUN 1C DEB", "group": "fengyun-1c-debris", "lat": 1.6186516261467871, "lon": 153.4189383036455, "alt_km": 737.3476862617272, "timestamp": "2025-12-13T16:48:32.989271+00:00", "meta": {"OBJECT_NAME": "FENGYUN 1C DEB", "OBJECT_ID": "1999-025AVM", "EPOCH": "2025-12-11T05:31:34.049280", "MEAN_MOTION": 14.37749293, "ECCENTRICITY": 0.00435959, "INCLINATION": 99.0037, "RA_OF_ASC_NODE": 330.5761, "ARG_OF_PERICENTER": 183.204, "MEAN_ANOMALY": 176.8873, "EPHEMERIS_TYPE": 0, "CLASSIFICATION_TYPE": "U", "NORAD_CAT_ID": 30827, "ELEMENT_SET_NO": 999, "REV_AT_EPOCH": 96527, "BSTAR": 0.0040350501, "MEAN_MOTION_DOT": 0.00012251, "MEAN_MOTION_DDOT": 0}, "tle": {"line1": "1 30827U 99025AVM 25345.23025520  .00012251  00000+0  40351-2 0  9998", "line2": "2 30827  99.0037 330.5761 0043595 183.2040 176.8873 14.37749293965277"}}, "geometry": {"type": "Point", "coordinates": [153.4189383036455, 1.6186516261467871]}}]}